ONEWEB-0694             
1 56722U 23068N   24108.82541429  .00000044  00000+0  80951-4 0  9995
2 56722  87.9145  26.0557 0002354  79.8751 280.2646 13.16591270 47772
ONEWEB-0696             
1 56723U 23068P   24108.86096662 -.00000146  00000+0 -42126-3 0  9990
2 56723  87.9032  56.4981 0001633  77.6276 282.5037 13.15548115 45454
ONEWEB-0703             
1 56724U 23068Q   24108.87047571 -.00000144  00000+0 -41532-3 0  9995
2 56724  87.9034  56.5172 0000726  56.3658 303.7541 13.15548188 45344
ONEWEB-0721             
1 56725U 23068R   24108.94046796  .00006980  00000+0  82048-3 0  9991
2 56725  86.6820   1.2704 0012811 118.3482 241.9036 14.84692749 49575
